{"type": "FeatureCollection", "features": [ {"type": "Feature", "properties": {"norad_id": 58655, "name": "BEIDOU-3 M26 (C48)", "group": "beidou", "lat": -17.55384550647515, "lon": 56.2173536870451, "alt_km": 21529.586447475514, "timestamp": "2025-12-08T23:34:04.234966+00:00", "meta": {"OBJECT_NAME": "BEIDOU-3 M26 (C48)", "OBJECT_ID": "2023-207B", "EPOCH": "2025-12-08T11:26:54.595392", "MEAN_MOTION": 1.8623113, "ECCENTRICITY": 0.00036549, "INCLINATION": 55.583, "RA_OF_ASC_NODE": 68.7321, "ARG_OF_PERICENTER": 253.8899, "MEAN_ANOMALY": 106.0912, "EPHEMERIS_TYPE": 0, "CLASSIFICATION_TYPE": "U", "NORAD_CAT_ID": 58655, "ELEMENT_SET_NO": 999, "REV_AT_EPOCH": 1327, "BSTAR": 0, "MEAN_MOTION_DOT": -4.7e-07, "MEAN_MOTION_DDOT": 0}, "tle": {"line1": "1 58655U 23207B   25342.47702078 -.00000047  00000+0  00000+0 0  9994", "line2": "2 58655  55.5830  68.7321 0003654 253.8899 106.0912  1.86231130 13273"}}, "geometry": {"type": "Point", "coordinates": [56.2173536870451, -17.55384550647515]}}, {"type": "Feature", "properties": {"norad_id": 61186, "name": "BEIDOU-3 M25 (C47)", "group": "beidou", "lat": 54.27421873558912, "lon": 48.30225149761003, "alt_km": 21536.105887553495, "timestamp": "2025-12-08T23:34:04.234978+00:00", "meta": {"OBJECT_NAME": "BEIDOU-3 M25 (C47)", "OBJECT_ID": "2024-168B", "EPOCH": "2025-12-08T12:05:45.909312", "MEAN_MOTION": 1.86229865, "ECCENTRICITY": 0.00054392, "INCLINATION": 54.6457, "RA_OF_ASC_NODE": 308.8661, "ARG_OF_PERICENTER": 295.7763, "MEAN_ANOMALY": 199.2113, "EPHEMERIS_TYPE": 0, "CLASSIFICATION_TYPE": "U", "NORAD_CAT_ID": 61186, "ELEMENT_SET_NO": 999, "REV_AT_EPOCH": 823, "BSTAR": 0, "MEAN_MOTION_DOT": -7.4e-07, "MEAN_MOTION_DDOT": 0}, "tle": {"line1": "1 61186U 24168B   25342.50400358 -.00000074  00000+0  00000+0 0  9994", "line2": "2 61186  54.6457 308.8661 0005439 295.7763 199.2113  1.86229865  8233"}}, "geometry": {"type": "Point", "coordinates": [48.30225149761003, 54.27421873558912]}}, {"type": "Feature", "properties": {"norad_id": 61187, "name": "BEIDOU-3 M27 (C49)", "group": "beidou", "lat": -38.94565078087563, "lon": 163.80699730081514, "alt_km": 21534.263238526422, "timestamp": "2025-12-08T23:34:04.234989+00:00", "meta": {"OBJECT_NAME": "BEIDOU-3 M27 (C49)", "OBJECT_ID": "2024-168C", "EPOCH": "2025-12-08T08:37:14.421216", "MEAN_MOTION": 1.86229996, "ECCENTRICITY": 0.00023093, "INCLINATION": 54.6413, "RA_OF_ASC_NODE": 308.8548, "ARG_OF_PERICENTER": 333.5406, "MEAN_ANOMALY": 199.3005, "EPHEMERIS_TYPE": 0, "CLASSIFICATION_TYPE": "U", "NORAD_CAT_ID": 61187, "ELEMENT_SET_NO": 999, "REV_AT_EPOCH": 570, "BSTAR": 0, "MEAN_MOTION_DOT": -7.3e-07, "MEAN_MOTION_DDOT": 0}, "tle": {"line1": "1 61187U 24168C   25342.35919469 -.00000073  00000+0  00000+0 0  9995", "line2": "2 61187  54.6413 308.8548 0002309 333.5406 199.3005  1.86229996  5703"}}, "geometry": {"type": "Point", "coordinates": [163.80699730081514, -38.94565078087563]}}]}